NORAD_CAT_ID,OBJECT_NAME,OBJECT_TYPE,EPOCH,MEAN_MOTION,ECCENTRICITY,INCLINATION,RA_OF_ASC_NODE,ARG_OF_PERICENTER,MEAN_ANOMALY,BSTAR,MEAN_MOTION_DOT,MEAN_MOTION_DDOT,TLE_LINE0,TLE_LINE1,TLE_LINE2,SEMIMAJOR_AXIS,PERIOD,APOGEE,PERIGEE,DECAYED
53543.0,STARLINK-4297,PAYLOAD,2022-10-14 14:00:01,15.35551574,0.0001339,53.2175,241.3454,73.2747,153.4216,-0.0333139999999999,-0.01071591,0.0,0 STARLINK-4297,1 53543U 22101S   22287.58334491 -.01071591  00000-0 -33314-1 0  9995,2 53543  53.2175 241.3454 0001339  73.2747 153.4216 15.35551574  1301,6837.42,93.777,460.2,458.369,0.0
53543.0,STARLINK-4297,PAYLOAD,2022-10-14 22:00:00,15.34790108,0.0001281999999999,53.2175,239.7841,78.1991,191.7241,-0.033987,-0.01067169,0.0,0 STARLINK-4297,1 53543U 22101S   22287.91667824 -.01067169  00000-0 -33987-1 0  9993,2 53543  53.2175 239.7841 0001282  78.1991 191.7241 15.34790108  1304,6839.681,93.824,462.423,460.669,0.0
53543.0,STARLINK-4297,PAYLOAD,2022-10-15 06:00:00,15.3403061,0.0001322,53.2175,238.2266,60.7788,251.4574,-0.0348399999999999,-0.01067653,0.0,0 STARLINK-4297,1 53543U 22101S   22288.25001157 -.01067653  00000-0 -34840-1 0  9999,2 53543  53.2175 238.2266 0001322  60.7788 251.4574 15.34030610  8861,6841.938,93.87,464.708,462.899,0.0
53543.0,STARLINK-4297,PAYLOAD,2022-10-15 14:00:01,15.33271984,0.0001107999999999,53.2174,236.6675,84.5366,269.1018,-0.035774,-0.01069866,0.0,0 STARLINK-4297,1 53543U 22101S   22288.58334491 -.01069866  00000-0 -35774-1 0  9990,2 53543  53.2174 236.6675 0001108  84.5366 269.1018 15.33271984  1305,6844.195,93.917,466.818,465.302,0.0
53543.0,STARLINK-4297,PAYLOAD,2022-10-15 22:00:01,15.32511463,0.0001185,53.2176,235.1116,72.5792,321.6117,-0.0365459999999999,-0.0106717999999999,0.0,0 STARLINK-4297,1 53543U 22101S   22288.91668981 -.01067180  00000-0 -36546-1 0  9996,2 53543  53.2176 235.1116 0001185  72.5792 321.6117 15.32511463  1308,6846.459,93.963,469.135,467.513,0.0
53543.0,STARLINK-4297,PAYLOAD,2022-10-16 06:00:00,15.31751148,0.0001348,53.2176,233.5594,58.4638,15.2387,-0.037404,-0.01066456,0.0,0 STARLINK-4297,1 53543U 22101S   22289.25001157 -.01066456  00000-0 -37404-1 0  9999,2 53543  53.2176 233.5594 0001348  58.4638  15.2387 15.31751148  9020,6848.725,94.01,471.513,469.666,0.0
53543.0,STARLINK-4297,PAYLOAD,2022-10-16 14:00:01,15.30991664,0.0001254,53.2175,232.0057,76.8203,35.5462,-0.0382949999999999,-0.01066146,0.0,0 STARLINK-4297,1 53543U 22101S   22289.58334491 -.01066146  00000-0 -38295-1 0  9990,2 53543  53.2175 232.0057 0001254  76.8203  35.5462 15.30991664  1305,6850.989000000001,94.057,473.713,471.995,0.0
53543.0,STARLINK-4297,PAYLOAD,2022-10-16 22:00:00,15.30231862,0.0001346,53.2177,230.4554,79.9956,70.1215,-0.039182,-0.01065345,0.0,0 STARLINK-4297,1 53543U 22101S   22289.91667824 -.01065345  00000-0 -39182-1 0  9992,2 53543  53.2177 230.4554 0001346  79.9956  70.1215 15.30231862  1300,6853.257,94.103,476.044,474.199,0.0
53543.0,STARLINK-4297,PAYLOAD,2022-10-17 06:00:00,15.29470098,0.0001399,53.2176,228.9084,75.3388,111.6161,-0.039964,-0.01061524,0.0,0 STARLINK-4297,1 53543U 22101S   22290.25001157 -.01061524  00000-0 -39964-1 0  9995,2 53543  53.2176 228.9084 0001399  75.3388 111.6161 15.29470098  9174,6855.531999999997,94.15,478.356,476.43800000000016,0.0
53543.0,STARLINK-4297,PAYLOAD,2022-10-17 14:00:01,15.28713439,0.0001383,53.2175,227.3599,70.14699999999999,152.733,-0.041098,-0.01065982,0.0,0 STARLINK-4297,1 53543U 22101S   22290.58334491 -.01065982  00000-0 -41098-1 0  9994,2 53543  53.2175 227.3599 0001383  70.1470 152.7330 15.28713439  1304,6857.794,94.197,480.608,478.711,0.0
53543.0,STARLINK-4297,PAYLOAD,2022-10-17 22:00:00,15.27953312,0.0001322,53.2176,225.8153,89.9614,167.93099999999995,-0.042017,-0.01064699,0.0,0 STARLINK-4297,1 53543U 22101S   22290.91667824 -.01064699  00000-0 -42017-1 0  9996,2 53543  53.2176 225.8153 0001322  89.9614 167.9310 15.27953312  1306,6860.068,94.244,482.84,481.027,0.0
53543.0,STARLINK-4297,PAYLOAD,2022-10-18 06:00:00,15.27192015,0.0001249,53.2175,224.2736,86.0289,205.9631,-0.042869,-0.01061497,0.0,0 STARLINK-4297,1 53543U 22101S   22291.25001157 -.01061497  00000-0 -42869-1 0  9993,2 53543  53.2175 224.2736 0001249  86.0289 205.9631 15.27192015  9323,6862.348000000001,94.291,485.07,483.356,0.0
53543.0,STARLINK-4297,PAYLOAD,2022-10-18 14:00:01,15.2643458,0.0001161,53.2175,222.7305,84.9303,240.2495,-0.044054,-0.01065535,0.0,0 STARLINK-4297,1 53543U 22101S   22291.58334491 -.01065535  00000-0 -44054-1 0  9994,2 53543  53.2175 222.7305 0001161  84.9303 240.2495 15.26434580  1300,6864.618,94.337,487.28,485.686,0.0
53543.0,STARLINK-4297,PAYLOAD,2022-10-18 22:00:00,15.25677434,0.0001274,53.217,221.1919,68.2156,289.2369,-0.045224,-0.01068701,0.0,0 STARLINK-4297,1 53543U 22101S   22291.91667824 -.01068701  00000-0 -45224-1 0  9998,2 53543  53.2170 221.1919 0001274  68.2156 289.2369 15.25677434  1304,6866.889,94.384,489.629,487.879,0.0
53543.0,STARLINK-4297,PAYLOAD,2022-10-19 06:00:00,15.24912697,0.0001193,53.2168,219.6561,76.0484,312.767,-0.045895,-0.01060481,0.0,0 STARLINK-4297,1 53543U 22101S   22292.25001157 -.01060481  00000-0 -45895-1 0  9998,2 53543  53.2168 219.6561 0001193  76.0484 312.7670 15.24912697  9483,6869.185,94.432,491.869,490.23,0.0
53543.0,STARLINK-4297,PAYLOAD,2022-10-19 14:00:01,15.24154787,0.0001159,53.2175,218.1169,81.5038,337.7623,-0.047094,-0.01063374,0.0,0 STARLINK-4297,1 53543U 22101S   22292.58334491 -.01063374  00000-0 -47094-1 0  9991,2 53543  53.2175 218.1169 0001159  81.5038 337.7623 15.24154787  1303,6871.462,94.479,494.12300000000016,492.53,0.0
53543.0,STARLINK-4297,PAYLOAD,2022-10-19 22:00:00,15.233970499999998,0.0001334,53.2176,216.5833,65.6588,23.1427,-0.048303,-0.01065986,0.0,0 STARLINK-4297,1 53543U 22101S   22292.91667824 -.01065986  00000-0 -48303-1 0  9992,2 53543  53.2176 216.5833 0001334  65.6588  23.1427 15.23397050  1301,6873.74,94.526,496.522,494.68800000000016,0.0
53543.0,STARLINK-4297,PAYLOAD,2022-10-20 06:00:00,15.22633264,0.0001421,53.2173,215.052,61.4562,55.9701,-0.049044,-0.01058631,0.0,0 STARLINK-4297,1 53543U 22101S   22293.25001157 -.01058631  00000-0 -49044-1 0  9993,2 53543  53.2173 215.0520 0001421  61.4562  55.9701 15.22633264  9639,6876.038000000001,94.573,498.881,496.926,0.0
53543.0,STARLINK-4297,PAYLOAD,2022-10-20 14:00:01,15.21875575,0.0001312,53.2174,213.5195,85.6066,59.5313,-0.050317,-0.01061647,0.0,0 STARLINK-4297,1 53543U 22101S   22293.58334491 -.01061647  00000-0 -50317-1 0  9995,2 53543  53.2174 213.5195 0001312  85.6066  59.5313 15.21875575  1304,6878.321,94.62,501.088,499.283,0.0
53543.0,STARLINK-4297,PAYLOAD,2022-10-20 22:00:00,15.21117075,0.0001384,53.2176,211.9913,85.9404,85.9953,-0.051548,-0.01063358,0.0,0 STARLINK-4297,1 53543U 22101S   22293.91667824 -.01063358  00000-0 -51548-1 0  9999,2 53543  53.2176 211.9913 0001384  85.9404  85.9953 15.21117075  1301,6880.607,94.667,503.424,501.52,0.0
53543.0,STARLINK-4297,PAYLOAD,2022-10-21 06:00:00,15.20354558,0.0001396999999999,53.2173,210.4652,77.985,119.8368,-0.0524149999999999,-0.01057749,0.0,0 STARLINK-4297,1 53543U 22101S   22294.25001157 -.01057749  00000-0 -52415-1 0  9999,2 53543  53.2173 210.4652 0001397  77.9850 119.8368 15.20354558  9787,6882.906999999997,94.715,505.734,503.811,0.0
53543.0,STARLINK-4297,PAYLOAD,2022-10-21 14:00:01,15.19596462,0.0001356,53.2174,208.938,84.119,138.6767,-0.053727,-0.01060172,0.0,0 STARLINK-4297,1 53543U 22101S   22294.58334491 -.01060172  00000-0 -53727-1 0  9996,2 53543  53.2174 208.9380 0001356  84.1190 138.6767 15.19596462  1302,6885.196,94.762,507.995,506.128,0.0
53543.0,STARLINK-4297,PAYLOAD,2022-10-21 22:00:00,15.18846428,0.0001341,53.2166,207.4164,87.2835,159.5672,-0.055679,-0.01087392,0.0,0 STARLINK-4297,1 53543U 22101S   22294.91667824 -.01087392  00000-0 -55679-1 0  9993,2 53543  53.2166 207.4164 0001341  87.2835 159.5672 15.18846428  1307,6887.4630000000025,94.809,510.251,508.404,0.0
53543.0,STARLINK-4297,PAYLOAD,2022-10-22 06:00:00,15.18077657,0.0001299,53.2172,205.8944,83.1206,186.8822,-0.056137,-0.01073226,0.0,0 STARLINK-4297,1 53543U 22101S   22295.25001157 -.01073226  00000-0 -56137-1 0  9993,2 53543  53.2172 205.8944 0001299  83.1206 186.8822 15.18077657  9938,6889.788000000001,94.857,512.548,510.758,0.0
53543.0,STARLINK-4297,PAYLOAD,2022-10-22 14:00:01,15.1731703,0.000125,53.2174,204.3725,84.2074,208.0324,-0.057312,-0.01071954,0.0,0 STARLINK-4297,1 53543U 22101S   22295.58334491 -.01071954  00000-0 -57312-1 0  9991,2 53543  53.2174 204.3725 0001250  84.2074 208.0324 15.17317030  1301,6892.09,94.904,514.817,513.094,0.0
53543.0,STARLINK-4297,PAYLOAD,2022-10-22 22:00:00,15.16567426,0.0001242,53.2164,202.8564,80.3207,233.2358,-0.059408,-0.01086311,0.0,0 STARLINK-4297,1 53543U 22101S   22295.91667824 -.01086311  00000-0 -59408-1 0  9998,2 53543  53.2164 202.8564 0001242  80.3207 233.2358 15.16567426  1302,6894.361,94.951,517.082,515.37,0.0
53543.0,STARLINK-4297,PAYLOAD,2022-10-23 06:00:00,15.15800418,0.000118,53.2169,201.3397,86.9054,247.0645,-0.0600539999999999,-0.01075108,0.0,0 STARLINK-4297,1 53543U 22101S   22296.25001157 -.01075108  00000-0 -60054-1 0  9998,2 53543  53.2169 201.3397 0001180  86.9054 247.0645 15.15800418 10096,6896.687,94.999,519.365,517.738,0.0
53543.0,STARLINK-4297,PAYLOAD,2022-10-23 14:00:01,15.15037767,0.0001161,53.2173,199.8229,87.0107,266.4591,-0.061109,-0.01070775,0.0,0 STARLINK-4297,1 53543U 22101S   22296.58334491 -.01070775  00000-0 -61109-1 0  9991,2 53543  53.2173 199.8229 0001161  87.0107 266.4591 15.15037767  1304,6899.001,95.047,521.6669999999998,520.065,0.0
53543.0,STARLINK-4297,PAYLOAD,2022-10-23 22:00:00,15.14281952,0.000125,53.2169,198.3117,74.8749,297.177,-0.062797,-0.01076536,0.0,0 STARLINK-4297,1 53543U 22101S   22296.91667824 -.01076536  00000-0 -62797-1 0  9992,2 53543  53.2169 198.3117 0001250  74.8749 297.1770 15.14281952  1300,6901.295999999999,95.095,524.024,522.299,0.0
